Datetime,Products,First Name,Last Name,E-mail,Mobile No,Address Line 1, Address Line 2,Country,City,State,ZIP Code
"Sun Jan 01 2023 00:00:00 GMT+0000",4+1+6+3,Chris,Lee,chris.lee901@example.com,+1-555-129-6800,"949 4 1 St.",,Italy,Sydney,PA,09876
"Mon Jan 02 2023 00:00:00 GMT+0000",6+1+2+5+7+2+2+3,Emily,Lee,emily.lee765@example.com,+1-555-675-8191,"796 1 4 St.",,France,"New York",BE,54321
"Tue Jan 03 2023 00:00:00 GMT+0000",3+4+4+1+1+5+7+5+7+1,Jane,Johnson,jane.johnson491@example.com,+1-555-835-7296,"647 2 2 St.",,UK,London,NSW,54321
"Wed Jan 04 2023 00:00:00 GMT+0000",5+1,Jane,Johnson,jane.johnson373@example.com,+1-555-555-2523,"652 1 1 St.",,USA,"New York",BE,13579
"Thu Jan 05 2023 00:00:00 GMT+0000",2+5+5+3+4+4+1+2+3+5,John,Garcia,john.garcia185@example.com,+1-555-788-2113,"474 2 5 St.",,Italy,Madrid,ON,09876
"Fri Jan 06 2023 00:00:00 GMT+0000",2+2+3+2+8+5,Mike,Garcia,mike.garcia265@example.com,+1-555-774-4044,"989 3 1 St.",,Italy,Madrid,PA,13579
"Sat Jan 07 2023 00:00:00 GMT+0000",6+2+2+1+5+5+3+1+6+5,John,Lee,john.lee657@example.com,+1-555-206-2659,"588 5 1 St.",,Canada,Rome,ON,98765
"Sun Jan 08 2023 00:00:00 GMT+0000",2+3,John,Lee,john.lee130@example.com,+1-555-416-7922,"862 2 5 St.",,Spain,"New York",BE,24680
"Mon Jan 09 2023 00:00:00 GMT+0000",8+2+3+2+6+4+1+1,Emily,Johnson,emily.johnson301@example.com,+1-555-424-8284,"132 1 4 St.",,Canada,Madrid,PA,13579
"Tue Jan 10 2023 00:00:00 GMT+0000",1+3+8+3,Emily,Johnson,emily.johnson727@example.com,+1-555-780-2207,"817 0 0 St.",,Australia,Sydney,MD,12345
"Wed Jan 11 2023 00:00:00 GMT+0000",4+1+3+2+8+5,Sarah,Brown,sarah.brown360@example.com,+1-555-320-7242,"923 6 7 St.",,USA,London,BE,09876
"Thu Jan 12 2023 00:00:00 GMT+0000",1+2+1+5+4+5+7+1,Mike,Williams,mike.williams487@example.com,+1-555-203-6395,"174 2 2 St.",,Germany,Berlin,UK,54321
"Fri Jan 13 2023 00:00:00 GMT+0000",4+1+4+3+5+2,Jane,Johnson,jane.johnson133@example.com,+1-555-298-2806,"370 5 5 St.",,Australia,"New York",UK,24680
"Sat Jan 14 2023 00:00:00 GMT+0000",6+2+7+3,John,Davis,john.davis370@example.com,+1-555-622-4340,"838 0 6 St.",,Italy,London,BE,12345
"Sun Jan 15 2023 00:00:00 GMT+0000",5+2+6+1+4+5+6+1,Jane,Lee,jane.lee536@example.com,+1-555-424-6096,"560 2 4 St.",,France,Sydney,NSW,43210
"Mon Jan 16 2023 00:00:00 GMT+0000",5+1,John,Davis,john.davis396@example.com,+1-555-257-6972,"652 2 2 St.",,Canada,Madrid,NY,13579
"Tue Jan 17 2023 00:00:00 GMT+0000",4+4+6+2+4+3,Chris,Johnson,chris.johnson143@example.com,+1-555-353-8720,"647 1 7 St.",,Spain,Paris,PA,98765
"Wed Jan 18 2023 00:00:00 GMT+0000",4+1+8+3+4+3+4+1+8+2+5+1,Sarah,Jones,sarah.jones237@example.com,+1-555-631-9919,"205 7 4 St.",,Spain,London,NSW,24680
"Thu Jan 19 2023 00:00:00 GMT+0000",4+2+7+2+7+1+2+4,Amy,Davis,amy.davis636@example.com,+1-555-323-3360,"776 6 0 St.",,Spain,Toronto,BE,12345
"Fri Jan 20 2023 00:00:00 GMT+0000",4+4+2+2+4+4+2+1+1+2+6+4+5+1,Chris,Jones,chris.jones764@example.com,+1-555-860-3286,"577 6 3 St.",,France,Sydney,MD,09876
"Sat Jan 21 2023 00:00:00 GMT+0000",2+3,Chris,Smith,chris.smith370@example.com,+1-555-346-3696,"755 1 7 St.",,Italy,Paris,BE,12345
"Sun Jan 22 2023 00:00:00 GMT+0000",1+2+2+1,John,Davis,john.davis185@example.com,+1-555-328-7575,"483 6 6 St.",,USA,Sydney,RM,98765
"Mon Jan 23 2023 00:00:00 GMT+0000",5+3+5+3+2+1+2+3+7+4+2+3+6+3,Jane,Garcia,jane.garcia634@example.com,+1-555-253-8255,"958 7 3 St.",,France,Sydney,RM,09876
"Tue Jan 24 2023 00:00:00 GMT+0000",8+3,Sarah,Williams,sarah.williams270@example.com,+1-555-231-8533,"204 6 6 St.",,UK,"New York",ON,43210
"Wed Jan 25 2023 00:00:00 GMT+0000",4+3+8+4+1+4+8+5+8+4,Jane,Jones,jane.jones385@example.com,+1-555-108-8351,"722 5 7 St.",,Italy,Sydney,ON,09876
"Thu Jan 26 2023 00:00:00 GMT+0000",5+1+7+1+7+4+8+5,Mike,Johnson,mike.johnson956@example.com,+1-555-637-3824,"984 4 7 St.",,USA,Toronto,MD,13579
"Fri Jan 27 2023 00:00:00 GMT+0000",2+2+7+1+3+2+8+2,Jane,Garcia,jane.garcia290@example.com,+1-555-857-4764,"603 5 4 St.",,Germany,Berlin,RM,24680
"Sat Jan 28 2023 00:00:00 GMT+0000",1+1+8+4+7+3+7+1+4+3+1+2,Sarah,Smith,sarah.smith229@example.com,+1-555-967-7194,"342 4 2 St.",,Australia,London,UK,09876
"Sun Jan 29 2023 00:00:00 GMT+0000",6+1+1+4+5+4,Jane,Johnson,jane.johnson168@example.com,+1-555-138-6243,"715 5 1 St.",,Australia,"New York",PA,67890
"Mon Jan 30 2023 00:00:00 GMT+0000",7+4+1+1,Mike,Garcia,mike.garcia480@example.com,+1-555-653-3330,"947 1 3 St.",,Germany,Madrid,MD,12345
"Tue Jan 31 2023 00:00:00 GMT+0000",1+5+6+4+4+4+8+4+4+2+5+3,John,Smith,john.smith275@example.com,+1-555-319-1769,"173 0 3 St.",,Italy,Toronto,BE,67890
"Wed Feb 01 2023 00:00:00 GMT+0000",2+2+2+5+3+5+7+2+6+1+5+4,Chris,Davis,chris.davis410@example.com,+1-555-469-1046,"170 0 7 St.",,USA,Toronto,NY,98765
"Thu Feb 02 2023 00:00:00 GMT+0000",1+5+2+1,Jane,Davis,jane.davis875@example.com,+1-555-133-5334,"178 0 5 St.",,Spain,London,MD,98765
"Fri Feb 03 2023 00:00:00 GMT+0000",5+3+3+4+3+5,Sarah,Johnson,sarah.johnson317@example.com,+1-555-764-4756,"477 3 0 St.",,Australia,"New York",UK,24680
"Sat Feb 04 2023 00:00:00 GMT+0000",5+5+2+1+8+2+3+4,Jane,Garcia,jane.garcia355@example.com,+1-555-746-4402,"125 0 0 St.",,Canada,"New York",BE,54321
"Sun Feb 05 2023 00:00:00 GMT+0000",7+1+8+4+6+3+4+3,John,Lee,john.lee178@example.com,+1-555-416-6592,"672 6 5 St.",,Spain,Rome,PA,54321
"Mon Feb 06 2023 00:00:00 GMT+0000",8+2+8+3+8+2+7+2,Mike,Lee,mike.lee336@example.com,+1-555-330-9486,"725 7 1 St.",,Italy,"New York",UK,43210
"Tue Feb 07 2023 00:00:00 GMT+0000",7+4+5+4+7+3,David,Brown,david.brown203@example.com,+1-555-789-3085,"989 2 2 St.",,Italy,"New York",NY,12345
"Wed Feb 08 2023 00:00:00 GMT+0000",6+5+8+4+4+2+5+5,John,Garcia,john.garcia209@example.com,+1-555-865-1700,"521 6 6 St.",,Australia,London,MD,09876
"Thu Feb 09 2023 00:00:00 GMT+0000",7+5+8+5,Sarah,Lee,sarah.lee691@example.com,+1-555-762-5808,"324 3 2 St.",,France,"New York",ON,54321
"Fri Feb 10 2023 00:00:00 GMT+0000",2+4,Amy,Johnson,amy.johnson305@example.com,+1-555-513-3617,"536 0 7 St.",,Italy,Paris,NY,09876
"Sat Feb 11 2023 00:00:00 GMT+0000",7+3+3+4+5+4,Sarah,Williams,sarah.williams951@example.com,+1-555-200-2512,"294 4 2 St.",,UK,"New York",RM,13579
"Sun Feb 12 2023 00:00:00 GMT+0000",5+4+7+2+3+4+2+5,Chris,Brown,chris.brown235@example.com,+1-555-379-5179,"398 7 0 St.",,UK,Sydney,PA,54321
"Mon Feb 13 2023 00:00:00 GMT+0000",2+3+7+2,Chris,Smith,chris.smith678@example.com,+1-555-235-2976,"470 4 6 St.",,France,Toronto,NY,98765
"Tue Feb 14 2023 00:00:00 GMT+0000",3+3+5+4+2+3+8+5+4+5+3+4,David,Lee,david.lee516@example.com,+1-555-736-5875,"363 2 5 St.",,France,London,BE,12345
"Wed Feb 15 2023 00:00:00 GMT+0000",4+2+6+3,Chris,Williams,chris.williams678@example.com,+1-555-661-4146,"732 5 7 St.",,France,Sydney,NSW,98765
"Thu Feb 16 2023 00:00:00 GMT+0000",3+2+6+3+2+3,David,Garcia,david.garcia140@example.com,+1-555-232-3712,"255 4 6 St.",,UK,Sydney,MD,54321
"Fri Feb 17 2023 00:00:00 GMT+0000",6+1+6+2+8+2+6+1,Emily,Williams,emily.williams988@example.com,+1-555-822-7466,"984 5 3 St.",,France,London,NSW,54321
"Sat Feb 18 2023 00:00:00 GMT+0000",2+3+4+3+7+4,Mike,Davis,mike.davis370@example.com,+1-555-647-4029,"895 0 3 St.",,France,Paris,MD,24680
"Sun Feb 19 2023 00:00:00 GMT+0000",5+2+2+5+8+4+5+4,Mike,Lee,mike.lee912@example.com,+1-555-802-8637,"302 6 4 St.",,UK,London,NSW,67890
"Mon Feb 20 2023 00:00:00 GMT+0000",5+3+5+3+2+1+5+3+5+4,Sarah,Lee,sarah.lee580@example.com,+1-555-865-2948,"473 1 4 St.",,USA,London,BE,98765
"Tue Feb 21 2023 00:00:00 GMT+0000",8+4+2+1+6+2,Mike,Brown,mike.brown287@example.com,+1-555-822-1822,"166 7 4 St.",,Australia,Paris,MD,12345
"Wed Feb 22 2023 00:00:00 GMT+0000",2+5+7+4+2+4+2+3+8+1,Chris,Garcia,chris.garcia336@example.com,+1-555-945-8283,"217 1 7 St.",,Germany,Berlin,MD,43210
"Thu Feb 23 2023 00:00:00 GMT+0000",2+2+6+2,Sarah,Smith,sarah.smith527@example.com,+1-555-158-9286,"130 0 0 St.",,France,Madrid,NY,98765
"Fri Feb 24 2023 00:00:00 GMT+0000",2+1,Sarah,Davis,sarah.davis464@example.com,+1-555-823-3485,"697 6 4 St.",,Italy,Paris,PA,13579
"Sat Feb 25 2023 00:00:00 GMT+0000",5+2+5+4+1+4+1+3,Chris,Davis,chris.davis361@example.com,+1-555-554-4561,"890 3 0 St.",,USA,Berlin,ON,09876
"Sun Feb 26 2023 00:00:00 GMT+0000",1+3+5+2+1+4+3+2,Sarah,Johnson,sarah.johnson942@example.com,+1-555-942-6363,"944 0 4 St.",,Spain,London,BE,54321
"Mon Feb 27 2023 00:00:00 GMT+0000",2+3+7+3+6+5+4+1,Emily,Jones,emily.jones642@example.com,+1-555-963-4865,"703 7 6 St.",,Germany,"New York",ON,43210
"Tue Feb 28 2023 00:00:00 GMT+0000",4+3+1+5+7+5,Emily,Smith,emily.smith592@example.com,+1-555-431-3533,"211 2 3 St.",,France,London,PA,13579
"Wed Mar 01 2023 00:00:00 GMT+0000",8+3+7+1+6+5+6+5+4+5,Jane,Brown,jane.brown694@example.com,+1-555-684-2905,"546 5 1 St.",,Italy,Berlin,NSW,12345
"Thu Mar 02 2023 00:00:00 GMT+0000",6+5+4+5+3+1+3+2,Amy,Jones,amy.jones827@example.com,+1-555-347-4880,"478 2 0 St.",,Germany,Sydney,PA,67890
"Fri Mar 03 2023 00:00:00 GMT+0000",5+1+5+1+2+2,Sarah,Johnson,sarah.johnson227@example.com,+1-555-186-2473,"171 3 3 St.",,Germany,"New York",NY,12345
"Sat Mar 04 2023 00:00:00 GMT+0000",8+5+1+3,Emily,Johnson,emily.johnson443@example.com,+1-555-671-8916,"124 1 1 St.",,Germany,Sydney,NY,54321
"Sun Mar 05 2023 00:00:00 GMT+0000",3+1+5+3+8+5,Amy,Davis,amy.davis931@example.com,+1-555-609-1246,"125 6 5 St.",,Italy,Sydney,ON,12345
"Mon Mar 06 2023 00:00:00 GMT+0000",2+3,Chris,Williams,chris.williams986@example.com,+1-555-315-5830,"583 0 2 St.",,France,London,RM,54321
"Tue Mar 07 2023 00:00:00 GMT+0000",5+3+5+4+7+2+3+3,David,Davis,david.davis842@example.com,+1-555-264-5730,"100 2 7 St.",,Canada,Sydney,NY,13579
"Wed Mar 08 2023 00:00:00 GMT+0000",8+1+3+3+5+1+8+2+5+3,John,Lee,john.lee659@example.com,+1-555-457-8944,"985 4 0 St.",,Spain,"New York",RM,98765
"Thu Mar 09 2023 00:00:00 GMT+0000",4+4,Amy,Garcia,amy.garcia952@example.com,+1-555-545-3559,"306 4 4 St.",,UK,"New York",ON,54321
"Fri Mar 10 2023 00:00:00 GMT+0000",6+1,Jane,Johnson,jane.johnson946@example.com,+1-555-810-8185,"977 5 5 St.",,Germany,Rome,BE,67890
"Sat Mar 11 2023 00:00:00 GMT+0000",3+5,John,Smith,john.smith130@example.com,+1-555-913-4785,"552 3 6 St.",,Italy,Madrid,RM,67890
"Sun Mar 12 2023 00:00:00 GMT+0000",6+2,Emily,Garcia,emily.garcia548@example.com,+1-555-662-3575,"511 6 1 St.",,Spain,London,PA,67890
"Mon Mar 13 2023 00:00:00 GMT+0000",8+2+7+5,John,Davis,john.davis666@example.com,+1-555-962-3235,"513 2 4 St.",,Italy,Sydney,BE,12345
"Tue Mar 14 2023 00:00:00 GMT+0000",3+2+1+2,Mike,Johnson,mike.johnson204@example.com,+1-555-278-4912,"554 5 1 St.",,Australia,Sydney,NY,54321
"Wed Mar 15 2023 00:00:00 GMT+0000",2+5,Sarah,Davis,sarah.davis990@example.com,+1-555-900-6791,"637 6 1 St.",,Italy,Rome,BE,12345
"Thu Mar 16 2023 00:00:00 GMT+0000",1+4+7+3+8+4+7+2+6+5,Amy,Smith,amy.smith292@example.com,+1-555-758-4800,"489 6 1 St.",,France,Rome,NY,24680
"Fri Mar 17 2023 00:00:00 GMT+0000",2+2+1+4+5+4,Emily,Smith,emily.smith517@example.com,+1-555-497-2671,"394 1 5 St.",,France,Sydney,PA,13579
"Sat Mar 18 2023 00:00:00 GMT+0000",6+3+6+1+7+2,Jane,Garcia,jane.garcia857@example.com,+1-555-550-8853,"347 0 7 St.",,Australia,Sydney,NY,13579
"Sun Mar 19 2023 00:00:00 GMT+0000",2+5+6+3+1+3,Sarah,Johnson,sarah.johnson305@example.com,+1-555-269-3686,"273 3 1 St.",,USA,London,NY,12345
"Mon Mar 20 2023 00:00:00 GMT+0000",2+5+5+2+8+4+5+4+3+3,Emily,Davis,emily.davis176@example.com,+1-555-581-3357,"647 1 1 St.",,Australia,London,NSW,54321
"Tue Mar 21 2023 00:00:00 GMT+0000",8+5+5+3+7+5,Mike,Johnson,mike.johnson370@example.com,+1-555-755-3342,"905 0 7 St.",,Italy,Toronto,PA,13579
"Wed Mar 22 2023 00:00:00 GMT+0000",4+1+2+5+7+2,Jane,Garcia,jane.garcia154@example.com,+1-555-625-6274,"164 6 7 St.",,Canada,Berlin,BE,12345
"Thu Mar 23 2023 00:00:00 GMT+0000",1+4,Mike,Davis,mike.davis460@example.com,+1-555-232-2557,"557 2 5 St.",,Australia,"New York",RM,54321
"Fri Mar 24 2023 00:00:00 GMT+0000",5+5+8+1+4+4+6+4+1+5+4+4,David,Jones,david.jones836@example.com,+1-555-635-7183,"492 4 5 St.",,Australia,London,NSW,43210
"Sat Mar 25 2023 00:00:00 GMT+0000",3+1+5+4+1+5,Jane,Johnson,jane.johnson713@example.com,+1-555-914-5684,"282 0 7 St.",,Australia,Paris,PA,54321
"Sun Mar 26 2023 00:00:00 GMT+0000",3+2+1+2+2+2+5+1,Jane,Williams,jane.williams888@example.com,+1-555-748-9889,"825 3 4 St.",,UK,Berlin,MD,24680
"Mon Mar 27 2023 00:00:00 GMT+0000",7+3+5+5+1+5,David,Brown,david.brown158@example.com,+1-555-878-7109,"837 4 2 St.",,USA,Madrid,BE,24680
"Tue Mar 28 2023 00:00:00 GMT+0000",5+5+3+5+6+3+2+1+7+3,David,Lee,david.lee178@example.com,+1-555-279-7971,"964 4 7 St.",,Australia,Paris,PA,54321
"Wed Mar 29 2023 00:00:00 GMT+0000",6+3+7+3+3+3+6+4,Chris,Lee,chris.lee555@example.com,+1-555-105-4136,"371 4 5 St.",,France,Rome,PA,12345
"Thu Mar 30 2023 00:00:00 GMT+0000",8+2,John,Smith,john.smith897@example.com,+1-555-713-9879,"693 2 3 St.",,Germany,Sydney,NSW,12345
"Fri Mar 31 2023 00:00:00 GMT+0000",1+3+2+5+6+4,Mike,Williams,mike.williams215@example.com,+1-555-578-1957,"976 3 7 St.",,Spain,Berlin,MD,43210
"Sat Apr 01 2023 00:00:00 GMT+0000",3+1,Jane,Brown,jane.brown901@example.com,+1-555-907-7115,"886 5 1 St.",,Australia,"New York",MD,09876
"Sun Apr 02 2023 00:00:00 GMT+0000",6+1,Jane,Brown,jane.brown813@example.com,+1-555-164-3291,"285 1 7 St.",,Italy,"New York",MD,24680
"Mon Apr 03 2023 00:00:00 GMT+0000",8+2+2+3+5+5,Emily,Garcia,emily.garcia478@example.com,+1-555-622-9440,"624 7 6 St.",,Italy,London,ON,54321
"Tue Apr 04 2023 00:00:00 GMT+0000",6+2+8+3+2+5+4+2,Sarah,Johnson,sarah.johnson340@example.com,+1-555-455-9809,"193 3 5 St.",,Australia,Rome,NY,09876
"Wed Apr 05 2023 00:00:00 GMT+0000",6+4+3+4+5+4+7+2+1+1,Mike,Smith,mike.smith604@example.com,+1-555-387-1313,"624 4 2 St.",,Australia,"New York",NSW,09876
"Thu Apr 06 2023 00:00:00 GMT+0000",1+3+3+4+3+1+3+1+5+1,Emily,Jones,emily.jones459@example.com,+1-555-278-7586,"768 5 1 St.",,USA,Berlin,RM,67890
"Fri Apr 07 2023 00:00:00 GMT+0000",1+3+6+1+7+1,Sarah,Johnson,sarah.johnson454@example.com,+1-555-824-5869,"484 1 6 St.",,Italy,Madrid,ON,13579
"Sat Apr 08 2023 00:00:00 GMT+0000",1+4+7+4+3+5+4+5,Emily,Williams,emily.williams601@example.com,+1-555-151-7550,"575 2 1 St.",,UK,Toronto,NSW,54321
"Sun Apr 09 2023 00:00:00 GMT+0000",6+2,Emily,Garcia,emily.garcia719@example.com,+1-555-515-9986,"449 4 1 St.",,Italy,Rome,BE,12345
"Mon Apr 10 2023 00:00:00 GMT+0000",1+5,Mike,Davis,mike.davis112@example.com,+1-555-909-6163,"297 5 7 St.",,UK,London,NY,12345
"Tue Apr 11 2023 00:00:00 GMT+0000",5+5,Amy,Davis,amy.davis927@example.com,+1-555-242-5408,"186 2 7 St.",,UK,Toronto,RM,09876
"Wed Apr 12 2023 00:00:00 GMT+0000",6+4+6+2,Jane,Brown,jane.brown393@example.com,+1-555-876-4287,"212 1 1 St.",,Italy,Madrid,UK,43210
"Thu Apr 13 2023 00:00:00 GMT+0000",4+2+6+1,Emily,Davis,emily.davis676@example.com,+1-555-807-1984,"264 0 7 St.",,Italy,Paris,MD,24680
"Fri Apr 14 2023 00:00:00 GMT+0000",5+5+7+3,David,Davis,david.davis202@example.com,+1-555-207-4124,"791 1 1 St.",,UK,London,UK,09876
"Sat Apr 15 2023 00:00:00 GMT+0000",3+1,Emily,Jones,emily.jones503@example.com,+1-555-583-6486,"178 3 2 St.",,Italy,London,NY,13579
"Sun Apr 16 2023 00:00:00 GMT+0000",4+5,David,Jones,david.jones934@example.com,+1-555-186-7648,"360 2 3 St.",,Italy,Toronto,NSW,54321
"Mon Apr 17 2023 00:00:00 GMT+0000",3+4,Amy,Davis,amy.davis474@example.com,+1-555-455-5794,"440 0 2 St.",,Canada,Toronto,NSW,13579
"Tue Apr 18 2023 00:00:00 GMT+0000",8+1+8+2+2+3+3+4,John,Smith,john.smith772@example.com,+1-555-986-4468,"368 1 4 St.",,Spain,London,NY,24680
"Wed Apr 19 2023 00:00:00 GMT+0000",1+1+1+1+4+2,John,Jones,john.jones576@example.com,+1-555-695-9442,"750 2 4 St.",,USA,Madrid,MD,09876
"Thu Apr 20 2023 00:00:00 GMT+0000",4+4+6+1,Mike,Smith,mike.smith575@example.com,+1-555-457-2657,"110 3 5 St.",,Canada,Paris,ON,24680
"Fri Apr 21 2023 00:00:00 GMT+0000",6+5+3+2+3+1,John,Brown,john.brown571@example.com,+1-555-171-5655,"394 6 7 St.",,Australia,London,BE,67890
"Sat Apr 22 2023 00:00:00 GMT+0000",4+2+2+3,Amy,Jones,amy.jones113@example.com,+1-555-888-6088,"376 3 4 St.",,Italy,Sydney,RM,09876
"Sun Apr 23 2023 00:00:00 GMT+0000",6+3+3+3+2+1+5+5+2+3,Chris,Lee,chris.lee371@example.com,+1-555-895-7705,"652 3 0 St.",,Australia,Paris,UK,43210
"Mon Apr 24 2023 00:00:00 GMT+0000",6+1+5+4+2+2+2+5+7+1,Sarah,Davis,sarah.davis735@example.com,+1-555-978-4871,"757 6 4 St.",,Canada,Paris,BE,24680
"Tue Apr 25 2023 00:00:00 GMT+0000",5+3+8+4,Sarah,Jones,sarah.jones787@example.com,+1-555-994-7634,"869 1 3 St.",,Germany,London,ON,67890
"Wed Apr 26 2023 00:00:00 GMT+0000",6+3+8+2+8+3+3+5+1+5,Mike,Smith,mike.smith247@example.com,+1-555-463-9004,"196 2 6 St.",,Spain,London,PA,24680
"Thu Apr 27 2023 00:00:00 GMT+0000",4+5+5+5+7+1,Mike,Davis,mike.davis447@example.com,+1-555-969-3979,"423 1 3 St.",,UK,London,UK,24680
"Fri Apr 28 2023 00:00:00 GMT+0000",7+5+3+1+1+3+2+5,Sarah,Johnson,sarah.johnson796@example.com,+1-555-929-3266,"398 6 0 St.",,Germany,London,UK,24680
"Sat Apr 29 2023 00:00:00 GMT+0000",5+2+6+3+1+3+6+1,Chris,Garcia,chris.garcia872@example.com,+1-555-590-8469,"295 2 5 St.",,Italy,Berlin,ON,67890
"Sun Apr 30 2023 00:00:00 GMT+0000",1+1+3+2,Amy,Johnson,amy.johnson139@example.com,+1-555-246-2171,"347 3 7 St.",,Canada,Madrid,UK,24680
"Mon May 01 2023 00:00:00 GMT+0000",6+4+3+5+5+5+5+1+7+5,Amy,Garcia,amy.garcia661@example.com,+1-555-803-9562,"888 5 2 St.",,Italy,"New York",PA,43210
"Tue May 02 2023 00:00:00 GMT+0000",2+2+7+3+4+4,John,Johnson,john.johnson826@example.com,+1-555-494-9498,"543 5 1 St.",,Italy,Rome,PA,98765
"Wed May 03 2023 00:00:00 GMT+0000",4+2,Sarah,Jones,sarah.jones677@example.com,+1-555-719-5534,"503 1 4 St.",,UK,Berlin,RM,13579
"Thu May 04 2023 00:00:00 GMT+0000",4+2,Chris,Brown,chris.brown678@example.com,+1-555-270-8849,"705 5 1 St.",,France,Sydney,RM,13579
"Fri May 05 2023 00:00:00 GMT+0000",6+4+6+1+3+3,John,Johnson,john.johnson287@example.com,+1-555-807-7888,"684 0 3 St.",,USA,Sydney,NY,67890
"Sat May 06 2023 00:00:00 GMT+0000",3+4,Mike,Brown,mike.brown683@example.com,+1-555-886-5072,"815 2 6 St.",,Germany,Rome,NY,09876
"Sun May 07 2023 00:00:00 GMT+0000",7+5+4+3,Mike,Brown,mike.brown653@example.com,+1-555-359-3199,"714 5 1 St.",,Germany,Madrid,NSW,12345
"Mon May 08 2023 00:00:00 GMT+0000",2+4,David,Williams,david.williams323@example.com,+1-555-612-7917,"857 3 2 St.",,Spain,Berlin,MD,09876
"Tue May 09 2023 00:00:00 GMT+0000",8+3+3+5+6+5+1+2+5+3,Amy,Williams,amy.williams511@example.com,+1-555-366-1495,"856 7 0 St.",,UK,Madrid,NY,13579
"Wed May 10 2023 00:00:00 GMT+0000",5+3,Emily,Lee,emily.lee438@example.com,+1-555-691-1070,"764 7 6 St.",,Spain,Madrid,BE,54321
"Thu May 11 2023 00:00:00 GMT+0000",2+4+5+4,Mike,Lee,mike.lee442@example.com,+1-555-478-4952,"792 0 2 St.",,Germany,Toronto,NSW,13579
"Fri May 12 2023 00:00:00 GMT+0000",6+1+5+4,John,Johnson,john.johnson212@example.com,+1-555-425-3171,"535 0 2 St.",,UK,Toronto,UK,09876
"Sat May 13 2023 00:00:00 GMT+0000",3+5+5+5,Sarah,Johnson,sarah.johnson219@example.com,+1-555-695-8170,"468 2 5 St.",,Germany,Sydney,ON,24680
"Sun May 14 2023 00:00:00 GMT+0000",1+1+4+1+7+3,John,Davis,john.davis345@example.com,+1-555-994-5384,"752 6 0 St.",,Australia,Toronto,NY,67890
"Mon May 15 2023 00:00:00 GMT+0000",1+1+3+4+4+4+8+2,Amy,Lee,amy.lee757@example.com,+1-555-395-3769,"953 6 4 St.",,Australia,Berlin,NY,43210
"Tue May 16 2023 00:00:00 GMT+0000",4+4+6+1+7+1+7+5+4+1+5+2+3+1,David,Davis,david.davis782@example.com,+1-555-994-1043,"219 6 5 St.",,Australia,London,UK,54321
"Wed May 17 2023 00:00:00 GMT+0000",7+2+4+2+7+5+7+4,Mike,Garcia,mike.garcia276@example.com,+1-555-573-9142,"146 6 1 St.",,USA,London,PA,09876
"Thu May 18 2023 00:00:00 GMT+0000",4+3,Emily,Jones,emily.jones478@example.com,+1-555-302-5024,"414 5 4 St.",,Australia,"New York",MD,12345
"Fri May 19 2023 00:00:00 GMT+0000",2+2+3+2+2+4,Amy,Brown,amy.brown901@example.com,+1-555-443-9659,"924 4 1 St.",,Italy,Toronto,UK,09876
"Sat May 20 2023 00:00:00 GMT+0000",6+5+7+4+6+2+5+2,John,Davis,john.davis544@example.com,+1-555-839-6078,"856 1 2 St.",,Italy,Sydney,MD,12345
"Sun May 21 2023 00:00:00 GMT+0000",8+5+2+3+6+4+2+5,Jane,Garcia,jane.garcia667@example.com,+1-555-782-8705,"208 3 6 St.",,Italy,"New York",PA,09876
"Mon May 22 2023 00:00:00 GMT+0000",1+3+2+3+8+4+3+3,Jane,Davis,jane.davis613@example.com,+1-555-382-2035,"712 6 5 St.",,Italy,London,PA,43210
"Tue May 23 2023 00:00:00 GMT+0000",5+5+3+3,Jane,Brown,jane.brown418@example.com,+1-555-230-2746,"514 5 3 St.",,USA,Toronto,MD,13579
"Wed May 24 2023 00:00:00 GMT+0000",8+4+1+1,Mike,Johnson,mike.johnson202@example.com,+1-555-228-9220,"934 3 1 St.",,Canada,Madrid,MD,54321
"Thu May 25 2023 00:00:00 GMT+0000",3+3+2+3,Mike,Davis,mike.davis808@example.com,+1-555-434-5454,"556 5 5 St.",,Italy,Toronto,BE,67890
"Fri May 26 2023 00:00:00 GMT+0000",8+1+6+4,Emily,Brown,emily.brown972@example.com,+1-555-818-8965,"351 5 4 St.",,France,London,ON,12345
"Sat May 27 2023 00:00:00 GMT+0000",1+2+8+2+8+2,John,Lee,john.lee922@example.com,+1-555-720-4328,"752 7 0 St.",,France,Sydney,NSW,54321
"Sun May 28 2023 00:00:00 GMT+0000",4+1+8+3,David,Smith,david.smith702@example.com,+1-555-214-2288,"928 1 5 St.",,Australia,"New York",RM,43210
"Mon May 29 2023 00:00:00 GMT+0000",4+1+1+3+8+4,John,Brown,john.brown303@example.com,+1-555-632-9362,"796 3 4 St.",,Canada,Madrid,UK,67890
"Tue May 30 2023 00:00:00 GMT+0000",5+3,David,Lee,david.lee647@example.com,+1-555-442-2280,"685 3 4 St.",,France,"New York",UK,43210
"Wed May 31 2023 00:00:00 GMT+0000",5+2+2+4+7+1,Chris,Williams,chris.williams996@example.com,+1-555-400-5298,"257 4 4 St.",,UK,Berlin,ON,13579
"Thu Jun 01 2023 00:00:00 GMT+0000",7+1+1+4+3+2,David,Davis,david.davis587@example.com,+1-555-938-7952,"286 2 7 St.",,USA,Sydney,NSW,09876
"Fri Jun 02 2023 00:00:00 GMT+0000",6+3+1+5+4+5+8+1,Mike,Smith,mike.smith100@example.com,+1-555-393-7270,"516 1 4 St.",,Spain,London,PA,98765
"Sat Jun 03 2023 00:00:00 GMT+0000",8+5+1+4+2+4,Sarah,Johnson,sarah.johnson316@example.com,+1-555-296-5481,"343 7 3 St.",,UK,Berlin,PA,13579
"Sun Jun 04 2023 00:00:00 GMT+0000",4+4+2+1+3+2,Emily,Williams,emily.williams418@example.com,+1-555-795-3005,"685 5 7 St.",,Canada,Sydney,ON,12345
"Mon Jun 05 2023 00:00:00 GMT+0000",1+4,Mike,Williams,mike.williams652@example.com,+1-555-264-2109,"208 2 1 St.",,Germany,Sydney,RM,09876
"Tue Jun 06 2023 00:00:00 GMT+0000",4+2+2+1+4+5+5+5,David,Johnson,david.johnson808@example.com,+1-555-163-6938,"664 0 0 St.",,France,Rome,NY,67890
"Wed Jun 07 2023 00:00:00 GMT+0000",1+1+6+2+4+5,Amy,Brown,amy.brown488@example.com,+1-555-774-2946,"593 2 1 St.",,Australia,Paris,MD,67890
"Thu Jun 08 2023 00:00:00 GMT+0000",1+5+7+1+6+1+5+3,David,Davis,david.davis443@example.com,+1-555-441-2141,"253 3 0 St.",,Australia,"New York",ON,09876
"Fri Jun 09 2023 00:00:00 GMT+0000",5+1+5+5+2+5,Jane,Lee,jane.lee528@example.com,+1-555-986-4522,"367 0 1 St.",,Germany,London,MD,98765
"Sat Jun 10 2023 00:00:00 GMT+0000",2+5+8+2+3+5+4+3+4+3,Mike,Johnson,mike.johnson180@example.com,+1-555-190-8024,"426 7 1 St.",,Germany,"New York",UK,43210
"Sun Jun 11 2023 00:00:00 GMT+0000",5+3+2+5,Jane,Smith,jane.smith125@example.com,+1-555-556-8431,"942 7 7 St.",,France,Rome,RM,98765
"Mon Jun 12 2023 00:00:00 GMT+0000",4+4+7+1+7+5,Mike,Jones,mike.jones684@example.com,+1-555-987-7568,"825 4 1 St.",,Spain,Rome,BE,13579
"Tue Jun 13 2023 00:00:00 GMT+0000",8+3+3+1+7+1,Chris,Johnson,chris.johnson228@example.com,+1-555-569-9088,"455 5 7 St.",,Italy,Toronto,ON,43210
"Wed Jun 14 2023 00:00:00 GMT+0000",8+5+2+4+2+4+7+1,David,Jones,david.jones528@example.com,+1-555-506-6041,"800 4 3 St.",,USA,Madrid,NSW,24680
"Thu Jun 15 2023 00:00:00 GMT+0000",6+3+6+5+3+4+4+5+2+2,David,Williams,david.williams272@example.com,+1-555-203-8030,"932 4 7 St.",,France,Madrid,NSW,24680
"Fri Jun 16 2023 00:00:00 GMT+0000",3+5+2+5+3+2+8+4+2+5+5+3,David,Smith,david.smith799@example.com,+1-555-452-1101,"420 3 6 St.",,Australia,Madrid,NSW,98765
"Sat Jun 17 2023 00:00:00 GMT+0000",2+1+6+5,Chris,Garcia,chris.garcia596@example.com,+1-555-448-2633,"755 7 3 St.",,Australia,Madrid,NSW,54321
"Sun Jun 18 2023 00:00:00 GMT+0000",2+5+2+4+4+5+7+5,Sarah,Davis,sarah.davis722@example.com,+1-555-238-8347,"151 5 6 St.",,Australia,London,PA,67890
"Mon Jun 19 2023 00:00:00 GMT+0000",1+3+4+5+4+2+4+5+2+3,Chris,Garcia,chris.garcia405@example.com,+1-555-504-6064,"725 4 7 St.",,Germany,Toronto,NSW,43210
"Tue Jun 20 2023 00:00:00 GMT+0000",1+3+6+2,David,Smith,david.smith573@example.com,+1-555-532-2304,"590 6 1 St.",,Italy,Paris,PA,13579
"Wed Jun 21 2023 00:00:00 GMT+0000",4+5+6+2,Mike,Garcia,mike.garcia747@example.com,+1-555-574-3117,"192 0 4 St.",,UK,London,RM,09876
"Thu Jun 22 2023 00:00:00 GMT+0000",7+5+3+4+2+5+6+2+8+4+4+2,John,Smith,john.smith637@example.com,+1-555-103-5810,"398 6 2 St.",,Germany,"New York",BE,09876
"Fri Jun 23 2023 00:00:00 GMT+0000",1+5+5+3+5+1+2+5+8+4+4+3,Chris,Lee,chris.lee584@example.com,+1-555-674-4089,"114 6 2 St.",,Italy,Madrid,ON,24680
"Sat Jun 24 2023 00:00:00 GMT+0000",4+5+4+4+1+1+7+1+8+5+4+3,Jane,Williams,jane.williams874@example.com,+1-555-303-9257,"524 0 6 St.",,Spain,Berlin,MD,43210
"Sun Jun 25 2023 00:00:00 GMT+0000",2+2+7+2+4+5+2+5,Amy,Davis,amy.davis801@example.com,+1-555-711-6047,"419 1 0 St.",,UK,"New York",BE,09876
"Mon Jun 26 2023 00:00:00 GMT+0000",5+5+4+1+4+2+4+4+6+2,Emily,Brown,emily.brown409@example.com,+1-555-422-6175,"774 1 0 St.",,Australia,London,NSW,98765
"Tue Jun 27 2023 00:00:00 GMT+0000",7+1+3+5+8+5,John,Brown,john.brown700@example.com,+1-555-154-3565,"811 1 0 St.",,USA,Berlin,PA,54321
"Wed Jun 28 2023 00:00:00 GMT+0000",3+4,David,Johnson,david.johnson983@example.com,+1-555-712-2862,"443 7 6 St.",,Spain,Madrid,NY,24680
"Thu Jun 29 2023 00:00:00 GMT+0000",5+4+5+1+6+4,Emily,Garcia,emily.garcia517@example.com,+1-555-112-1632,"481 5 1 St.",,Australia,Berlin,ON,43210
"Fri Jun 30 2023 00:00:00 GMT+0000",1+1,Emily,Jones,emily.jones420@example.com,+1-555-958-1413,"382 6 7 St.",,Australia,Berlin,NY,12345
"Sat Jul 01 2023 00:00:00 GMT+0000",3+2+6+2+4+1+2+4+5+4+7+2,John,Williams,john.williams935@example.com,+1-555-649-8246,"788 6 4 St.",,Australia,"New York",RM,98765
"Sun Jul 02 2023 00:00:00 GMT+0000",2+5+2+4+7+5+6+2+4+1,John,Lee,john.lee525@example.com,+1-555-780-3191,"323 4 6 St.",,Australia,Paris,NY,13579
"Mon Jul 03 2023 00:00:00 GMT+0000",4+4+8+5+6+5+3+1+4+4,David,Jones,david.jones242@example.com,+1-555-721-3444,"320 6 7 St.",,Germany,Madrid,ON,54321
"Tue Jul 04 2023 00:00:00 GMT+0000",3+4+7+5,Jane,Smith,jane.smith413@example.com,+1-555-713-4886,"853 0 6 St.",,Canada,London,PA,43210
"Wed Jul 05 2023 00:00:00 GMT+0000",5+1+3+3+3+4,Emily,Johnson,emily.johnson692@example.com,+1-555-263-7459,"844 2 5 St.",,Spain,Madrid,NSW,09876
"Thu Jul 06 2023 00:00:00 GMT+0000",6+4+4+1,Chris,Garcia,chris.garcia829@example.com,+1-555-983-3210,"531 5 0 St.",,Canada,Berlin,MD,09876
"Fri Jul 07 2023 00:00:00 GMT+0000",4+1+3+5+3+4+2+1,Emily,Smith,emily.smith595@example.com,+1-555-595-9090,"360 6 1 St.",,USA,Paris,RM,98765
"Sat Jul 08 2023 00:00:00 GMT+0000",4+2+7+5+3+4+2+5,David,Johnson,david.johnson377@example.com,+1-555-184-7459,"100 6 0 St.",,Spain,London,NY,43210
"Sun Jul 09 2023 00:00:00 GMT+0000",3+4+5+2,David,Garcia,david.garcia204@example.com,+1-555-429-7898,"577 4 3 St.",,Germany,Madrid,BE,67890
"Mon Jul 10 2023 00:00:00 GMT+0000",3+5+3+1+6+5+3+5+8+1+5+5,Sarah,Lee,sarah.lee187@example.com,+1-555-974-7282,"914 4 2 St.",,Canada,"New York",PA,24680
"Tue Jul 11 2023 00:00:00 GMT+0000",3+2+2+5,John,Jones,john.jones649@example.com,+1-555-644-7951,"262 5 3 St.",,France,Sydney,RM,24680
"Wed Jul 12 2023 00:00:00 GMT+0000",7+3+6+4+6+1+3+4+2+5+7+1,Chris,Brown,chris.brown147@example.com,+1-555-340-7937,"352 1 0 St.",,Italy,Toronto,ON,67890
"Thu Jul 13 2023 00:00:00 GMT+0000",7+2+5+1+6+1+5+5+6+3+5+5,John,Lee,john.lee995@example.com,+1-555-341-9130,"960 7 6 St.",,Italy,London,UK,67890
"Fri Jul 14 2023 00:00:00 GMT+0000",2+3+4+4,John,Jones,john.jones254@example.com,+1-555-198-9578,"836 2 3 St.",,Italy,Berlin,RM,12345
"Sat Jul 15 2023 00:00:00 GMT+0000",6+2+1+3+2+3+2+5+8+2+5+4,Sarah,Lee,sarah.lee908@example.com,+1-555-716-6833,"245 1 7 St.",,Spain,Madrid,NSW,12345
"Sun Jul 16 2023 00:00:00 GMT+0000",5+3+2+1,Amy,Davis,amy.davis526@example.com,+1-555-977-6962,"357 1 0 St.",,Spain,London,UK,24680
"Mon Jul 17 2023 00:00:00 GMT+0000",8+2+2+2+6+2,Sarah,Lee,sarah.lee852@example.com,+1-555-192-6072,"868 0 6 St.",,USA,London,PA,67890
"Tue Jul 18 2023 00:00:00 GMT+0000",5+1+2+5+3+4+4+5,Jane,Smith,jane.smith372@example.com,+1-555-141-4764,"849 7 0 St.",,Germany,Rome,BE,24680
"Wed Jul 19 2023 00:00:00 GMT+0000",7+5+3+5,Jane,Lee,jane.lee265@example.com,+1-555-245-2205,"480 3 1 St.",,Canada,Paris,ON,13579
"Thu Jul 20 2023 00:00:00 GMT+0000",8+2+5+5+7+1,Chris,Davis,chris.davis940@example.com,+1-555-587-6038,"667 3 4 St.",,Italy,Toronto,UK,67890
"Fri Jul 21 2023 00:00:00 GMT+0000",7+2+2+1+1+2+8+3,Chris,Jones,chris.jones623@example.com,+1-555-740-1975,"305 3 7 St.",,France,Toronto,PA,67890
"Sat Jul 22 2023 00:00:00 GMT+0000",8+1+6+5+5+1+2+4,Mike,Williams,mike.williams333@example.com,+1-555-923-4481,"973 5 6 St.",,UK,Toronto,MD,98765
"Sun Jul 23 2023 00:00:00 GMT+0000",1+5+4+1+7+1+1+1+7+3,Amy,Johnson,amy.johnson836@example.com,+1-555-653-8454,"301 5 0 St.",,Spain,"New York",UK,09876
"Mon Jul 24 2023 00:00:00 GMT+0000",3+3,Emily,Johnson,emily.johnson584@example.com,+1-555-275-9743,"365 6 0 St.",,Germany,Berlin,RM,13579
"Tue Jul 25 2023 00:00:00 GMT+0000",6+3+3+5+6+2+5+3+3+2+4+2,Amy,Smith,amy.smith818@example.com,+1-555-998-3482,"627 3 4 St.",,USA,Sydney,ON,43210
"Wed Jul 26 2023 00:00:00 GMT+0000",4+4+6+1+7+2,Emily,Davis,emily.davis408@example.com,+1-555-558-4805,"955 6 2 St.",,France,Paris,ON,12345
"Thu Jul 27 2023 00:00:00 GMT+0000",2+1+2+4+8+4+1+2+2+1,Jane,Smith,jane.smith196@example.com,+1-555-906-1950,"491 1 3 St.",,Canada,"New York",PA,24680
"Fri Jul 28 2023 00:00:00 GMT+0000",5+3,Amy,Jones,amy.jones937@example.com,+1-555-931-8946,"110 7 5 St.",,Australia,Paris,NSW,24680
"Sat Jul 29 2023 00:00:00 GMT+0000",3+5+2+2+7+1,Chris,Williams,chris.williams915@example.com,+1-555-692-6932,"380 7 0 St.",,USA,Rome,NY,98765
"Sun Jul 30 2023 00:00:00 GMT+0000",7+2+7+5+4+4+2+2,Emily,Brown,emily.brown750@example.com,+1-555-491-5932,"784 1 3 St.",,Germany,Berlin,UK,54321
"Mon Jul 31 2023 00:00:00 GMT+0000",2+5+8+3+8+2+8+2+1+3,Amy,Garcia,amy.garcia617@example.com,+1-555-454-9525,"247 0 3 St.",,Germany,Berlin,NSW,67890
"Tue Aug 01 2023 00:00:00 GMT+0000",3+5+7+1+6+3+6+1+1+4,Chris,Davis,chris.davis624@example.com,+1-555-899-7270,"132 4 1 St.",,Italy,Berlin,PA,12345
"Wed Aug 02 2023 00:00:00 GMT+0000",8+1+7+3+7+3,John,Lee,john.lee182@example.com,+1-555-429-2907,"528 1 0 St.",,UK,Paris,PA,24680
"Thu Aug 03 2023 00:00:00 GMT+0000",4+1,Amy,Smith,amy.smith442@example.com,+1-555-549-2138,"833 5 2 St.",,UK,Madrid,NY,12345
"Fri Aug 04 2023 00:00:00 GMT+0000",4+2,Mike,Garcia,mike.garcia990@example.com,+1-555-667-5518,"270 1 0 St.",,Canada,Toronto,ON,24680
"Sat Aug 05 2023 00:00:00 GMT+0000",3+4+7+3+1+1,Sarah,Lee,sarah.lee435@example.com,+1-555-862-5977,"580 5 5 St.",,Italy,London,MD,67890
"Sun Aug 06 2023 00:00:00 GMT+0000",4+3+5+4+3+1,David,Lee,david.lee800@example.com,+1-555-362-2464,"733 7 0 St.",,France,Berlin,ON,98765
"Mon Aug 07 2023 00:00:00 GMT+0000",6+4+2+3+8+5+7+2+8+1,David,Garcia,david.garcia755@example.com,+1-555-973-5943,"868 4 4 St.",,Canada,Madrid,RM,98765
"Tue Aug 08 2023 00:00:00 GMT+0000",8+1+5+2+3+3,David,Brown,david.brown258@example.com,+1-555-873-2142,"386 6 5 St.",,France,Paris,UK,13579
"Wed Aug 09 2023 00:00:00 GMT+0000",6+1+6+3+3+1,Emily,Jones,emily.jones231@example.com,+1-555-843-7788,"892 3 4 St.",,Spain,Toronto,NY,54321
"Thu Aug 10 2023 00:00:00 GMT+0000",3+2,John,Williams,john.williams160@example.com,+1-555-249-5110,"819 6 6 St.",,Spain,Paris,NSW,09876
"Fri Aug 11 2023 00:00:00 GMT+0000",7+1+8+1,Mike,Johnson,mike.johnson436@example.com,+1-555-729-5909,"949 2 2 St.",,Germany,Toronto,NY,24680
"Sat Aug 12 2023 00:00:00 GMT+0000",5+2,David,Davis,david.davis661@example.com,+1-555-630-5964,"624 0 1 St.",,Germany,Toronto,RM,13579
"Sun Aug 13 2023 00:00:00 GMT+0000",8+5+8+3+4+2,Chris,Garcia,chris.garcia680@example.com,+1-555-944-6169,"145 2 0 St.",,USA,Madrid,BE,13579
"Mon Aug 14 2023 00:00:00 GMT+0000",4+5+6+1,Sarah,Johnson,sarah.johnson754@example.com,+1-555-546-4643,"138 4 6 St.",,Italy,Berlin,MD,67890
"Tue Aug 15 2023 00:00:00 GMT+0000",1+5,Amy,Johnson,amy.johnson590@example.com,+1-555-182-3636,"785 2 7 St.",,France,Berlin,BE,98765
"Wed Aug 16 2023 00:00:00 GMT+0000",1+5+2+4+5+5+8+5+8+5+2+5,Emily,Johnson,emily.johnson488@example.com,+1-555-108-4448,"239 1 2 St.",,France,"New York",MD,54321
"Thu Aug 17 2023 00:00:00 GMT+0000",6+5+7+2,David,Lee,david.lee560@example.com,+1-555-460-9762,"955 0 0 St.",,Italy,Toronto,MD,12345
"Fri Aug 18 2023 00:00:00 GMT+0000",1+5+3+3,Sarah,Smith,sarah.smith538@example.com,+1-555-999-6762,"124 4 0 St.",,Germany,Paris,PA,13579
"Sat Aug 19 2023 00:00:00 GMT+0000",4+5+6+4,Amy,Smith,amy.smith557@example.com,+1-555-358-8879,"826 4 7 St.",,Germany,Madrid,PA,24680
"Sun Aug 20 2023 00:00:00 GMT+0000",5+4+5+5,Mike,Johnson,mike.johnson558@example.com,+1-555-692-2548,"419 7 3 St.",,Italy,Paris,NSW,98765
"Mon Aug 21 2023 00:00:00 GMT+0000",2+3+4+5+1+5+2+4,David,Williams,david.williams274@example.com,+1-555-423-7284,"573 4 6 St.",,Germany,London,RM,12345
"Tue Aug 22 2023 00:00:00 GMT+0000",6+4+6+2+1+5,David,Garcia,david.garcia464@example.com,+1-555-605-6632,"290 4 6 St.",,Spain,Madrid,MD,09876
"Wed Aug 23 2023 00:00:00 GMT+0000",7+2+5+4,John,Lee,john.lee252@example.com,+1-555-966-1847,"290 6 4 St.",,Germany,Sydney,PA,13579
"Thu Aug 24 2023 00:00:00 GMT+0000",7+5+4+1,Emily,Lee,emily.lee487@example.com,+1-555-148-5977,"364 3 2 St.",,Spain,"New York",BE,13579
"Fri Aug 25 2023 00:00:00 GMT+0000",7+3+8+4+1+2+7+5+4+3,Mike,Williams,mike.williams154@example.com,+1-555-198-2055,"715 5 7 St.",,UK,London,NY,67890
"Sat Aug 26 2023 00:00:00 GMT+0000",5+2+6+2,Jane,Jones,jane.jones672@example.com,+1-555-283-7226,"463 0 4 St.",,Germany,Toronto,NY,09876
"Sun Aug 27 2023 00:00:00 GMT+0000",6+1+5+1+1+2+6+4,John,Brown,john.brown757@example.com,+1-555-895-7720,"791 1 7 St.",,France,"New York",NSW,24680
"Mon Aug 28 2023 00:00:00 GMT+0000",8+2+3+3+7+3+4+4,Mike,Davis,mike.davis954@example.com,+1-555-361-3048,"272 7 1 St.",,Germany,Berlin,MD,24680
"Tue Aug 29 2023 00:00:00 GMT+0000",4+2,Emily,Johnson,emily.johnson883@example.com,+1-555-687-1350,"684 1 1 St.",,Spain,Berlin,UK,98765
"Wed Aug 30 2023 00:00:00 GMT+0000",1+3+1+2+5+3,Mike,Davis,mike.davis126@example.com,+1-555-858-7811,"113 0 4 St.",,UK,Sydney,BE,12345
"Thu Aug 31 2023 00:00:00 GMT+0000",3+5,Jane,Garcia,jane.garcia183@example.com,+1-555-154-4825,"758 7 7 St.",,Italy,Paris,PA,12345
"Fri Sep 01 2023 00:00:00 GMT+0000",2+5+6+3,Chris,Johnson,chris.johnson387@example.com,+1-555-245-1835,"556 1 0 St.",,Australia,Rome,BE,67890
"Sat Sep 02 2023 00:00:00 GMT+0000",6+3+3+5+7+3+2+5,Sarah,Davis,sarah.davis892@example.com,+1-555-696-1041,"345 7 3 St.",,UK,Berlin,MD,24680
"Sun Sep 03 2023 00:00:00 GMT+0000",7+1+7+1+5+3+8+1,Mike,Lee,mike.lee382@example.com,+1-555-612-9560,"597 3 5 St.",,Australia,Sydney,UK,67890
"Mon Sep 04 2023 00:00:00 GMT+0000",7+5+6+3+1+4,Mike,Johnson,mike.johnson586@example.com,+1-555-661-9545,"342 4 7 St.",,Germany,Berlin,NSW,98765
"Tue Sep 05 2023 00:00:00 GMT+0000",4+4+3+5+5+2+7+3,Mike,Jones,mike.jones759@example.com,+1-555-127-3585,"349 5 2 St.",,USA,"New York",PA,98765
"Wed Sep 06 2023 00:00:00 GMT+0000",3+3+4+4,David,Jones,david.jones431@example.com,+1-555-412-8288,"761 4 0 St.",,Germany,Rome,BE,12345
"Thu Sep 07 2023 00:00:00 GMT+0000",3+2+7+2,Amy,Davis,amy.davis544@example.com,+1-555-401-5797,"912 1 4 St.",,France,Sydney,UK,24680
"Fri Sep 08 2023 00:00:00 GMT+0000",1+2,Amy,Jones,amy.jones162@example.com,+1-555-628-6769,"588 6 2 St.",,UK,"New York",BE,12345
"Sat Sep 09 2023 00:00:00 GMT+0000",7+4+5+5+1+2+5+1,John,Jones,john.jones518@example.com,+1-555-455-2791,"323 1 4 St.",,USA,"New York",MD,98765
"Sun Sep 10 2023 00:00:00 GMT+0000",2+2+1+1+8+5,Jane,Johnson,jane.johnson217@example.com,+1-555-266-5330,"268 1 6 St.",,Canada,Madrid,NSW,09876
"Mon Sep 11 2023 00:00:00 GMT+0000",6+2+6+5+8+5,Mike,Johnson,mike.johnson512@example.com,+1-555-799-6426,"754 4 0 St.",,Australia,London,NSW,54321
"Tue Sep 12 2023 00:00:00 GMT+0000",1+1+1+2+7+1+7+4+3+1,John,Smith,john.smith160@example.com,+1-555-605-3390,"327 7 2 St.",,UK,Berlin,ON,12345
"Wed Sep 13 2023 00:00:00 GMT+0000",8+1+3+2+4+4,Jane,Brown,jane.brown448@example.com,+1-555-753-5379,"496 4 3 St.",,Australia,London,UK,24680
"Thu Sep 14 2023 00:00:00 GMT+0000",7+4+3+3,Sarah,Williams,sarah.williams965@example.com,+1-555-776-3272,"699 0 4 St.",,Canada,London,NSW,43210
"Fri Sep 15 2023 00:00:00 GMT+0000",4+4+2+3,David,Johnson,david.johnson256@example.com,+1-555-307-3089,"295 4 7 St.",,Italy,"New York",MD,13579
"Sat Sep 16 2023 00:00:00 GMT+0000",1+3+7+1,Mike,Lee,mike.lee145@example.com,+1-555-749-2778,"573 0 6 St.",,France,Rome,UK,54321
"Sun Sep 17 2023 00:00:00 GMT+0000",1+3+2+1+2+4+4+5+6+3,John,Williams,john.williams480@example.com,+1-555-634-9340,"886 4 7 St.",,France,Madrid,NY,98765
"Mon Sep 18 2023 00:00:00 GMT+0000",5+2,Sarah,Johnson,sarah.johnson778@example.com,+1-555-968-1234,"202 3 7 St.",,Canada,Toronto,BE,24680
"Tue Sep 19 2023 00:00:00 GMT+0000",7+4+1+3+2+3,Jane,Williams,jane.williams128@example.com,+1-555-372-6961,"644 1 0 St.",,Germany,Madrid,UK,54321
"Wed Sep 20 2023 00:00:00 GMT+0000",6+5,John,Garcia,john.garcia169@example.com,+1-555-344-3502,"577 3 6 St.",,Germany,Toronto,ON,43210
"Thu Sep 21 2023 00:00:00 GMT+0000",5+3+3+5+2+2,John,Smith,john.smith598@example.com,+1-555-607-4407,"395 2 6 St.",,UK,Madrid,ON,09876
"Fri Sep 22 2023 00:00:00 GMT+0000",1+5,Jane,Davis,jane.davis555@example.com,+1-555-612-8809,"731 2 3 St.",,UK,"New York",PA,09876
"Sat Sep 23 2023 00:00:00 GMT+0000",5+5+7+1+1+3+8+1+8+1,David,Smith,david.smith369@example.com,+1-555-625-6410,"694 2 3 St.",,USA,Madrid,RM,09876
"Sun Sep 24 2023 00:00:00 GMT+0000",5+4+7+2+7+3+6+4+4+3+4+1+2+1+2+1,Mike,Garcia,mike.garcia148@example.com,+1-555-146-4076,"680 2 4 St.",,France,Sydney,BE,12345
"Mon Sep 25 2023 00:00:00 GMT+0000",7+5,Chris,Jones,chris.jones788@example.com,+1-555-833-3153,"228 5 6 St.",,France,Rome,RM,13579
"Tue Sep 26 2023 00:00:00 GMT+0000",7+2+3+1+8+4+2+1+8+5+3+2,Amy,Jones,amy.jones616@example.com,+1-555-753-3989,"795 7 4 St.",,UK,Berlin,NY,12345
"Wed Sep 27 2023 00:00:00 GMT+0000",1+2+2+5+6+3+7+3,Amy,Garcia,amy.garcia252@example.com,+1-555-393-9471,"855 4 7 St.",,France,Paris,BE,09876
"Thu Sep 28 2023 00:00:00 GMT+0000",4+3+6+5+1+4,David,Johnson,david.johnson777@example.com,+1-555-226-3472,"757 2 0 St.",,Spain,London,NY,13579
"Fri Sep 29 2023 00:00:00 GMT+0000",7+4+6+4+1+2,Emily,Smith,emily.smith320@example.com,+1-555-773-5504,"423 1 3 St.",,Canada,Madrid,RM,98765
"Sat Sep 30 2023 00:00:00 GMT+0000",4+1+7+2+4+4+2+3,Amy,Smith,amy.smith677@example.com,+1-555-411-3163,"153 5 3 St.",,Spain,Paris,PA,12345
"Sun Oct 01 2023 00:00:00 GMT+0000",2+2+6+2+6+5,David,Johnson,david.johnson771@example.com,+1-555-779-7473,"272 6 6 St.",,Australia,Toronto,NSW,98765
"Mon Oct 02 2023 00:00:00 GMT+0000",5+3+4+1+6+1,Emily,Davis,emily.davis602@example.com,+1-555-247-4501,"720 0 4 St.",,Germany,Rome,RM,54321
"Tue Oct 03 2023 00:00:00 GMT+0000",5+2+4+2+2+2,John,Williams,john.williams465@example.com,+1-555-487-9406,"346 6 7 St.",,Germany,Madrid,MD,67890
"Wed Oct 04 2023 00:00:00 GMT+0000",6+2+7+4+4+3+7+2,John,Jones,john.jones664@example.com,+1-555-150-9954,"454 6 5 St.",,Germany,Paris,NY,67890
"Thu Oct 05 2023 00:00:00 GMT+0000",2+3+3+3+2+5+8+2+8+2+6+2,Chris,Smith,chris.smith640@example.com,+1-555-124-2402,"398 2 2 St.",,USA,Sydney,ON,09876
"Fri Oct 06 2023 00:00:00 GMT+0000",8+4+3+3+1+4+8+5,Chris,Jones,chris.jones454@example.com,+1-555-957-4132,"830 1 4 St.",,Italy,Sydney,RM,13579
"Sat Oct 07 2023 00:00:00 GMT+0000",1+1+4+3+5+2+7+1,Emily,Williams,emily.williams553@example.com,+1-555-254-9640,"390 7 2 St.",,Canada,Toronto,NSW,12345
"Sun Oct 08 2023 00:00:00 GMT+0000",6+1+5+5+5+4+5+4,Amy,Brown,amy.brown671@example.com,+1-555-916-7606,"386 7 2 St.",,Italy,Sydney,NY,24680
"Mon Oct 09 2023 00:00:00 GMT+0000",3+1+6+4,John,Johnson,john.johnson630@example.com,+1-555-292-1694,"382 5 2 St.",,Germany,Sydney,ON,13579
"Tue Oct 10 2023 00:00:00 GMT+0000",2+5+6+3,Emily,Smith,emily.smith414@example.com,+1-555-482-8475,"595 5 0 St.",,Germany,Rome,PA,54321
"Wed Oct 11 2023 00:00:00 GMT+0000",8+4+5+2+8+3+8+2+1+3,John,Garcia,john.garcia782@example.com,+1-555-119-5052,"637 5 0 St.",,UK,Berlin,NY,43210
"Thu Oct 12 2023 00:00:00 GMT+0000",1+5,Jane,Garcia,jane.garcia121@example.com,+1-555-182-6544,"361 7 0 St.",,Canada,"New York",PA,12345
"Fri Oct 13 2023 00:00:00 GMT+0000",5+3,Sarah,Williams,sarah.williams198@example.com,+1-555-256-5158,"287 1 5 St.",,USA,"New York",NY,24680
"Sat Oct 14 2023 00:00:00 GMT+0000",2+3+4+5,Mike,Garcia,mike.garcia179@example.com,+1-555-403-3542,"312 5 1 St.",,UK,London,RM,54321
"Sun Oct 15 2023 00:00:00 GMT+0000",6+4+4+3+5+3+1+2+5+5,Mike,Johnson,mike.johnson268@example.com,+1-555-439-2188,"802 3 3 St.",,Spain,Berlin,NY,24680
"Mon Oct 16 2023 00:00:00 GMT+0000",5+1+7+2+8+5+7+1,Emily,Lee,emily.lee938@example.com,+1-555-955-1650,"501 5 7 St.",,UK,"New York",MD,98765
"Tue Oct 17 2023 00:00:00 GMT+0000",8+5,Jane,Jones,jane.jones731@example.com,+1-555-747-6622,"460 6 3 St.",,Spain,Madrid,PA,13579
"Wed Oct 18 2023 00:00:00 GMT+0000",6+4+3+1+1+4+6+5,Jane,Garcia,jane.garcia294@example.com,+1-555-139-3151,"986 7 6 St.",,Italy,Madrid,ON,09876
"Thu Oct 19 2023 00:00:00 GMT+0000",3+3,Sarah,Williams,sarah.williams668@example.com,+1-555-638-7709,"694 4 0 St.",,Spain,Rome,NSW,13579
"Fri Oct 20 2023 00:00:00 GMT+0000",2+5+4+2,Emily,Davis,emily.davis383@example.com,+1-555-716-6114,"787 3 3 St.",,Germany,Toronto,ON,54321
"Sat Oct 21 2023 00:00:00 GMT+0000",7+4,Jane,Smith,jane.smith193@example.com,+1-555-197-1659,"935 3 6 St.",,France,Rome,RM,98765
"Sun Oct 22 2023 00:00:00 GMT+0000",6+1+7+2+8+3+2+1,Chris,Williams,chris.williams311@example.com,+1-555-189-4218,"395 4 1 St.",,UK,Berlin,NY,67890
"Mon Oct 23 2023 00:00:00 GMT+0000",8+1+6+4+7+3+1+2+8+3+3+5,Sarah,Jones,sarah.jones812@example.com,+1-555-168-6607,"835 6 3 St.",,Spain,Rome,BE,12345
"Tue Oct 24 2023 00:00:00 GMT+0000",6+3+7+5,David,Smith,david.smith526@example.com,+1-555-494-1139,"249 0 2 St.",,Australia,"New York",NSW,12345
"Wed Oct 25 2023 00:00:00 GMT+0000",5+4+2+4+2+4,John,Williams,john.williams519@example.com,+1-555-958-9174,"439 2 5 St.",,France,London,NY,54321
"Thu Oct 26 2023 00:00:00 GMT+0000",4+1+7+2+2+5+8+1+4+1,Chris,Davis,chris.davis884@example.com,+1-555-731-6060,"893 2 4 St.",,France,Rome,ON,13579
"Fri Oct 27 2023 00:00:00 GMT+0000",6+4+2+1+4+3+7+2+7+5,Sarah,Lee,sarah.lee978@example.com,+1-555-787-9013,"364 5 1 St.",,UK,Sydney,NSW,67890
"Sat Oct 28 2023 00:00:00 GMT+0000",8+3+7+1+6+3+1+5,Jane,Williams,jane.williams882@example.com,+1-555-258-4110,"704 5 0 St.",,UK,Paris,NY,24680
"Sun Oct 29 2023 00:00:00 GMT+0000",2+1+8+1,John,Jones,john.jones340@example.com,+1-555-317-7146,"255 1 5 St.",,USA,"New York",PA,43210
"Mon Oct 30 2023 00:00:00 GMT+0000",6+3+7+3+2+2,Emily,Smith,emily.smith844@example.com,+1-555-808-7855,"205 6 7 St.",,UK,Paris,BE,43210
"Tue Oct 31 2023 00:00:00 GMT+0000",5+3+7+1+2+2+7+1+2+3,Mike,Brown,mike.brown649@example.com,+1-555-798-1500,"822 0 7 St.",,Italy,Sydney,UK,13579
"Wed Nov 01 2023 00:00:00 GMT+0000",3+3+5+5+6+2+6+5,Emily,Williams,emily.williams628@example.com,+1-555-941-1205,"682 7 6 St.",,Italy,Madrid,PA,09876
"Thu Nov 02 2023 00:00:00 GMT+0000",3+5+5+1,John,Garcia,john.garcia385@example.com,+1-555-164-4060,"372 6 5 St.",,Australia,Toronto,NY,43210
"Fri Nov 03 2023 00:00:00 GMT+0000",2+2+5+5+2+5,Amy,Davis,amy.davis857@example.com,+1-555-306-4831,"114 6 7 St.",,Australia,Berlin,BE,43210
"Sat Nov 04 2023 00:00:00 GMT+0000",7+3+8+3+6+1+8+1,Mike,Jones,mike.jones641@example.com,+1-555-291-7843,"363 5 7 St.",,UK,Rome,ON,13579
"Sun Nov 05 2023 00:00:00 GMT+0000",7+3+6+1+4+2+4+1,Jane,Williams,jane.williams350@example.com,+1-555-225-2814,"955 2 1 St.",,Spain,London,NSW,43210
"Mon Nov 06 2023 00:00:00 GMT+0000",8+2+4+3+2+1+7+4,John,Johnson,john.johnson831@example.com,+1-555-667-9970,"949 0 7 St.",,Germany,Toronto,MD,98765
"Tue Nov 07 2023 00:00:00 GMT+0000",3+2+7+3+4+3,Jane,Garcia,jane.garcia990@example.com,+1-555-912-9181,"695 6 0 St.",,USA,Toronto,BE,98765
"Wed Nov 08 2023 00:00:00 GMT+0000",1+4+8+3+7+4+6+4,Amy,Brown,amy.brown812@example.com,+1-555-652-7785,"441 6 3 St.",,Spain,Paris,NY,67890
"Thu Nov 09 2023 00:00:00 GMT+0000",2+3+1+1+7+5,David,Lee,david.lee254@example.com,+1-555-726-6567,"480 0 7 St.",,Canada,Rome,ON,98765
"Fri Nov 10 2023 00:00:00 GMT+0000",2+4,Sarah,Brown,sarah.brown306@example.com,+1-555-775-9128,"857 5 5 St.",,France,Rome,NY,43210
"Sat Nov 11 2023 00:00:00 GMT+0000",7+3+3+3,Sarah,Johnson,sarah.johnson145@example.com,+1-555-655-6492,"962 7 7 St.",,UK,Berlin,NSW,98765
"Sun Nov 12 2023 00:00:00 GMT+0000",7+3+6+4+7+4+7+4,Chris,Brown,chris.brown949@example.com,+1-555-154-1647,"497 0 6 St.",,Italy,Madrid,NSW,24680
"Mon Nov 13 2023 00:00:00 GMT+0000",7+2+6+5+2+5+6+1,Jane,Williams,jane.williams661@example.com,+1-555-633-9503,"609 6 1 St.",,Spain,Berlin,RM,09876
"Tue Nov 14 2023 00:00:00 GMT+0000",5+5+6+2+4+1+3+5+1+2+3+3+2+4,Jane,Smith,jane.smith475@example.com,+1-555-291-2420,"417 3 6 St.",,Spain,Madrid,UK,13579
"Wed Nov 15 2023 00:00:00 GMT+0000",7+5+5+3+7+5,Sarah,Johnson,sarah.johnson362@example.com,+1-555-352-4024,"571 0 7 St.",,USA,Sydney,MD,24680
"Thu Nov 16 2023 00:00:00 GMT+0000",4+4+5+3+6+2+8+2,David,Johnson,david.johnson518@example.com,+1-555-894-1337,"392 0 1 St.",,France,Madrid,PA,67890
"Fri Nov 17 2023 00:00:00 GMT+0000",3+1+3+5+4+5+5+1,Jane,Johnson,jane.johnson741@example.com,+1-555-847-2650,"997 3 1 St.",,Italy,London,UK,12345
"Sat Nov 18 2023 00:00:00 GMT+0000",3+5+4+3+5+4,Emily,Lee,emily.lee625@example.com,+1-555-672-1706,"867 7 3 St.",,Germany,"New York",BE,43210
"Sun Nov 19 2023 00:00:00 GMT+0000",7+1+6+5+4+1,David,Davis,david.davis531@example.com,+1-555-288-9886,"877 6 4 St.",,Canada,Toronto,ON,13579
"Mon Nov 20 2023 00:00:00 GMT+0000",4+3+5+5,Mike,Johnson,mike.johnson705@example.com,+1-555-793-6527,"247 7 5 St.",,Germany,Paris,NSW,09876
"Tue Nov 21 2023 00:00:00 GMT+0000",3+3,Emily,Jones,emily.jones878@example.com,+1-555-193-4187,"787 0 6 St.",,Canada,London,PA,54321
"Wed Nov 22 2023 00:00:00 GMT+0000",8+1+7+3+2+1,Sarah,Garcia,sarah.garcia144@example.com,+1-555-365-8011,"515 2 2 St.",,Spain,London,ON,12345
"Thu Nov 23 2023 00:00:00 GMT+0000",6+1+8+2+7+4+7+5+1+4,Sarah,Brown,sarah.brown276@example.com,+1-555-991-5851,"741 1 3 St.",,Canada,Madrid,PA,09876
"Fri Nov 24 2023 00:00:00 GMT+0000",6+5,Emily,Garcia,emily.garcia423@example.com,+1-555-686-7953,"878 7 4 St.",,France,Madrid,NSW,98765
"Sat Nov 25 2023 00:00:00 GMT+0000",7+1+2+2,Amy,Davis,amy.davis444@example.com,+1-555-649-7400,"885 6 2 St.",,Italy,"New York",BE,98765
"Sun Nov 26 2023 00:00:00 GMT+0000",2+5+4+4+5+4,Jane,Davis,jane.davis851@example.com,+1-555-833-3359,"644 1 3 St.",,Australia,Toronto,UK,67890
"Mon Nov 27 2023 00:00:00 GMT+0000",4+5+8+2,John,Lee,john.lee815@example.com,+1-555-310-7551,"198 0 4 St.",,Canada,London,PA,43210
"Tue Nov 28 2023 00:00:00 GMT+0000",8+4+2+1,Sarah,Brown,sarah.brown393@example.com,+1-555-890-4841,"905 7 0 St.",,Australia,Sydney,ON,13579
"Wed Nov 29 2023 00:00:00 GMT+0000",6+2+3+1+3+4+7+1,Sarah,Johnson,sarah.johnson547@example.com,+1-555-609-7970,"645 7 6 St.",,Spain,"New York",NSW,24680
"Thu Nov 30 2023 00:00:00 GMT+0000",6+1+3+1+2+3+2+3,Sarah,Smith,sarah.smith386@example.com,+1-555-732-9098,"838 2 3 St.",,Germany,Rome,BE,67890
"Fri Dec 01 2023 00:00:00 GMT+0000",3+2+6+3+7+4,Sarah,Smith,sarah.smith702@example.com,+1-555-452-9097,"300 4 1 St.",,USA,London,NY,98765
"Sat Dec 02 2023 00:00:00 GMT+0000",7+3,Mike,Garcia,mike.garcia106@example.com,+1-555-261-2721,"971 5 1 St.",,France,Toronto,NSW,98765
"Sun Dec 03 2023 00:00:00 GMT+0000",4+5+2+4+8+3+5+1+8+1,John,Lee,john.lee994@example.com,+1-555-974-6030,"246 7 1 St.",,France,Toronto,PA,43210
"Mon Dec 04 2023 00:00:00 GMT+0000",7+4,John,Lee,john.lee377@example.com,+1-555-395-6581,"779 7 3 St.",,Spain,London,ON,24680
"Tue Dec 05 2023 00:00:00 GMT+0000",6+2+6+3+4+4+4+3+3+4,Mike,Johnson,mike.johnson927@example.com,+1-555-649-9356,"774 3 7 St.",,Australia,Sydney,NSW,12345
"Wed Dec 06 2023 00:00:00 GMT+0000",3+4+4+3+3+1+5+2+5+1+7+1+1+5,Chris,Johnson,chris.johnson211@example.com,+1-555-238-5080,"349 1 6 St.",,Spain,Paris,NSW,98765
"Thu Dec 07 2023 00:00:00 GMT+0000",6+3+2+1,Mike,Johnson,mike.johnson736@example.com,+1-555-278-3391,"735 0 2 St.",,Spain,"New York",UK,12345
"Fri Dec 08 2023 00:00:00 GMT+0000",2+1+6+2+8+3+3+2+4+3,David,Davis,david.davis543@example.com,+1-555-639-1580,"382 4 3 St.",,UK,Berlin,BE,12345
"Sat Dec 09 2023 00:00:00 GMT+0000",4+2,Amy,Smith,amy.smith528@example.com,+1-555-285-9886,"106 7 6 St.",,Canada,Toronto,NY,09876
"Sun Dec 10 2023 00:00:00 GMT+0000",6+5+6+5+5+5+4+3+6+4+7+4+7+2,Emily,Brown,emily.brown412@example.com,+1-555-353-1243,"830 5 3 St.",,Italy,Madrid,NY,43210
"Mon Dec 11 2023 00:00:00 GMT+0000",7+1+2+1+5+1,Sarah,Garcia,sarah.garcia299@example.com,+1-555-529-8716,"498 5 1 St.",,Canada,"New York",ON,43210
"Tue Dec 12 2023 00:00:00 GMT+0000",5+4+7+4+3+5,Jane,Brown,jane.brown540@example.com,+1-555-850-8142,"837 0 6 St.",,Italy,"New York",NY,98765
"Wed Dec 13 2023 00:00:00 GMT+0000",4+2+8+2+1+1,Chris,Williams,chris.williams202@example.com,+1-555-819-2235,"608 6 5 St.",,Germany,Rome,ON,12345
"Thu Dec 14 2023 00:00:00 GMT+0000",1+5+5+1+1+1,Chris,Garcia,chris.garcia364@example.com,+1-555-730-4266,"494 5 5 St.",,Italy,London,MD,43210
"Fri Dec 15 2023 00:00:00 GMT+0000",8+1+1+1,John,Lee,john.lee697@example.com,+1-555-692-7821,"675 1 5 St.",,Italy,"New York",RM,24680
"Sat Dec 16 2023 00:00:00 GMT+0000",4+4+2+2,Emily,Lee,emily.lee625@example.com,+1-555-643-6524,"723 6 5 St.",,USA,"New York",NY,43210
"Sun Dec 17 2023 00:00:00 GMT+0000",7+4+5+1,Mike,Johnson,mike.johnson140@example.com,+1-555-541-4495,"422 3 6 St.",,France,Paris,RM,54321
"Mon Dec 18 2023 00:00:00 GMT+0000",4+2+6+1+6+5+3+1+4+5+5+3+1+5,Mike,Jones,mike.jones347@example.com,+1-555-579-8386,"541 3 3 St.",,Spain,Toronto,BE,67890
"Tue Dec 19 2023 00:00:00 GMT+0000",2+2,Amy,Davis,amy.davis303@example.com,+1-555-755-3310,"690 3 4 St.",,France,Madrid,NY,13579
"Wed Dec 20 2023 00:00:00 GMT+0000",1+5,David,Davis,david.davis442@example.com,+1-555-138-3050,"775 4 5 St.",,Spain,Paris,RM,67890
"Thu Dec 21 2023 00:00:00 GMT+0000",2+2+3+4+6+1,Emily,Williams,emily.williams196@example.com,+1-555-799-3855,"633 1 7 St.",,USA,Paris,PA,98765
"Fri Dec 22 2023 00:00:00 GMT+0000",3+3+5+4,John,Jones,john.jones317@example.com,+1-555-499-3675,"875 3 6 St.",,Canada,Rome,PA,24680
"Sat Dec 23 2023 00:00:00 GMT+0000",3+4+3+1,Mike,Lee,mike.lee266@example.com,+1-555-704-4014,"347 3 0 St.",,Spain,Rome,MD,12345
"Sun Dec 24 2023 00:00:00 GMT+0000",4+5+2+3+7+4+5+1,John,Lee,john.lee671@example.com,+1-555-675-8351,"694 7 5 St.",,UK,Madrid,UK,12345
"Mon Dec 25 2023 00:00:00 GMT+0000",5+2+1+1+6+5+4+2,John,Williams,john.williams289@example.com,+1-555-442-8752,"889 0 6 St.",,Germany,"New York",UK,54321
"Tue Dec 26 2023 00:00:00 GMT+0000",2+1,Sarah,Williams,sarah.williams809@example.com,+1-555-551-9941,"647 3 6 St.",,Australia,Toronto,RM,98765
"Wed Dec 27 2023 00:00:00 GMT+0000",7+2+6+2,Amy,Johnson,amy.johnson606@example.com,+1-555-518-6476,"888 4 0 St.",,France,Sydney,PA,98765
"Thu Dec 28 2023 00:00:00 GMT+0000",7+1+3+3+7+3+8+2,Amy,Brown,amy.brown564@example.com,+1-555-386-1466,"201 3 0 St.",,Germany,Rome,PA,43210
"Fri Dec 29 2023 00:00:00 GMT+0000",8+2,Amy,Brown,amy.brown448@example.com,+1-555-576-6896,"457 0 2 St.",,Spain,"New York",NSW,43210
"Sat Dec 30 2023 00:00:00 GMT+0000",4+1,Emily,Lee,emily.lee625@example.com,+1-555-817-3685,"286 1 6 St.",,Germany,London,BE,09876
"Sun Dec 31 2023 00:00:00 GMT+0000",1+4+2+3+3+1+7+1+1+1,David,Garcia,david.garcia736@example.com,+1-555-136-7009,"343 1 3 St.",,UK,Sydney,PA,12345
